SL-14 R/B               
1 21423U 91042B   26015.14138440  .00000268  00000+0  30874-4 0  9998
2 21423  82.4929 270.4055 0018413  59.6017 300.7014 14.81774003845148
ERS-1                   
1 21574U 91050A   26015.03412435  .00000213  00000+0  82816-4 0  9994
2 21574  98.7898  31.9211 0032009   3.4369 356.7031 14.39395721808012
ARIANE 40 R/B           
1 21610U 91050F   26015.14323824  .00000190  00000+0  69611-4 0  9992
2 21610  98.2117  69.3608 0002335 218.2986 141.8039 14.42844107811271
INTERCOSMOS 25          
1 21819U 91086A   26014.41257844  .00000983  00000+0  19471-3 0  9997
2 21819  82.6086 342.8120 1485988 233.9200 111.5174 12.11853461490112
SL-8 R/B                
1 21876U 92008B   26014.83698694  .00000057  00000+0  43826-4 0  9997
2 21876  82.9289 307.8318 0033411 286.0780 127.7190 13.75966192702013
SL-8 R/B                
1 21938U 92020B   26015.51162360  .00000153  00000+0  14227-3 0  9991
2 21938  82.9295 193.2378 0030253  86.5691 294.7233 13.75537923693824
USA 81                  
1 21949U 92023A   26015.49666432  .00000151  00000+0  48407-4 0  9998
2 21949  85.0103 162.1089 0001723 117.6281 242.5087 14.32342339 87175
COSMOS 2219             
1 22219U 92076A   26015.39635344 -.00000069  00000+0 -11329-4 0  9997
2 22219  71.0619 129.4786 0020700 280.7325  79.1467 14.14081370710848
SL-16 R/B               
1 22220U 92076B   26015.27144231  .00000133  00000+0  90303-4 0  9995
2 22220  71.0015 300.8985 0012940 187.1086 331.1410 14.16849675714268
COSMOS 2221             
1 22236U 92080A   26014.93026311  .00001510  00000+0  13238-3 0  9998
2 22236  82.5057 330.5538 0015211  20.0303 340.1513 14.95925994772751
SL-16 R/B               
1 22285U 92093B   26014.60603140  .00000271  00000+0  16307-3 0  9994
2 22285  71.0221 117.8047 0003675 358.5682   1.5429 14.15436611705500
COSMOS 2228             
1 22286U 92094A   26015.18225843  .00001370  00000+0  11667-3 0  9995
2 22286  82.5189 288.5365 0019356 118.8071 241.5098 14.96909333768054
